TRANSPORTER-12 OBJECT AZ
1 62656U 25009AZ  26068.71026235  .00016057  00000+0  54903-3 0  9991
2 62656  97.3981 151.9913 0000987  45.3581 314.7740 15.30349724 63792
STARLINK-34196          
1 65324U 25189B   26068.65161564  .00012343  00000+0  42843-3 0  9997
2 65324  53.1598 206.7304 0001113  49.2578 310.8519 15.30178520 31054
